0 COSMOS 2251 DEB
1 34341U 93036PP  13282.37042214  .00018307  00000-0  44711-2 0  1298
2 34341 074.0427 114.1008 0024769 185.9693 244.8516 14.52387309244085
0 COSMOS 2251 DEB
1 34341U 93036PP  13283.00058306  .00016208  00000-0  39593-2 0  1300
2 34341 074.0428 112.9131 0024752 184.6027 299.7489 14.52400514244170
0 COSMOS 2251 DEB
1 34341U 93036PP  13286.36535939  .00013809  00000-0  33697-2 0  1329
2 34341 074.0423 106.5719 0024769 177.4867 253.4139 14.52482167244663
0 COSMOS 2251 DEB
1 34341U 93036PP  13287.95905970  .00027141  00000-0  65966-2 0  1330
2 34341 074.0418 103.5679 0024668 174.4848 306.5151 14.52529237244892
0 COSMOS 2251 DEB
1 34341U 93036PP  13289.39726044  .00021646  00000-0  52608-2 0  1347
2 34341 074.0417 100.8569 0024500 171.3567 267.2525 14.52586408245104
0 COSMOS 2251 DEB
1 34341U 93036PP  13290.64556235  .00023545  00000-0  57153-2 0  1351
2 34341 074.0420 098.5038 0024377 169.0094 314.7996 14.52626254245286
0 COSMOS 2251 DEB
1 34341U 93036PP  13292.15977204  .00018559  00000-0  45047-2 0  1361
2 34341 074.0426 095.6490 0024236 166.2108 313.0316 14.52682023245500
0 COSMOS 2251 DEB
1 34341U 93036PP  13294.48886453  .00024985  00000-0  60464-2 0  1375
2 34341 074.0433 091.2582 0023892 161.8339 253.1735 14.52763863245844
0 COSMOS 2251 DEB
1 34341U 93036PP  13295.88628175  .00026390  00000-0  63776-2 0  1387
2 34341 074.0433 088.6236 0023610 159.1188 001.4911 14.52818551246059
